; ========================================================
;   UNIVERSAL PLAYING FIELD: TOROIDAL COIL MANUFACTURING TOOLPATH
;   GENERATED FROM LOGIC ENGINE MASTER FRAMEWORK SPEC v5.0
; ========================================================
G21 ; Set system units to Millimeters
G90 ; Set machine instruction to Absolute Coordinates
G0 Z5.0000 ; Move spindle to safe clearing buffer height
M03 S2000 ; Initialize spindle motor rotation if tracking standard carving routing

; Initialize primary coordinate entry point (Node 0)
G0 X65.0000 Y0.0000 Z5.0000
G1 Z-1.5000 F600 ; Engage tool head
G1 X62.8947 Y3.4700 Z6.0000 F1200
G1 X57.1510 Y6.3255 Z11.4904 F1200
G1 X49.3181 Y8.2297 Z13.5000 F1200
G1 X41.4713 Y9.2939 Z11.4904 F1200
G1 X35.6132 Y10.0704 Z6.0000 F1200
G1 X33.1036 Y11.3645 Z-1.5000 F1200
G1 X34.2892 Y13.9271 Z-9.0000 F1200
G1 X38.4352 Y18.1380 Z-14.4904 F1200
G1 X43.9737 Y23.7974 Z-16.5000 F1200
G1 X48.9854 Y30.1112 Z-14.4904 F1200
G1 X51.7641 Y35.8924 Z-9.0000 F1200
G1 X51.2941 Y39.9238 Z-1.5000 F1200
G1 X47.5015 Y41.3691 Z6.0000 F1200
G1 X41.2150 Y40.0946 Z11.4904 F1200
G1 X33.8641 Y36.7862 Z13.5000 F1200
G1 X27.0183 Y32.8065 Z11.4904 F1200
G1 X21.9184 Y29.8211 Z6.0000 F1200
G1 X19.1432 Y29.3008 Z-1.5000 F1200

; Crossing External Hypercube Boundary Face Gate (Node 19)
G2 X18.5048 Y32.0513 Z-9.0000 R15.0000 F1200
G1 X19.1902 Y37.9208 Z-14.4904 F1200
G1 X20.0848 Y45.7887 Z-16.5000 F1200
G1 X20.1617 Y53.8494 Z-14.4904 F1200
G1 X18.8036 Y60.1183 Z-9.0000 F1200
G1 X15.9566 Y63.0110 Z-1.5000 F1200
G1 X12.0759 Y61.8220 Z6.0000 F1200
G1 X7.8978 Y56.9550 Z11.4904 F1200
G1 X4.1290 Y49.8292 Z13.5000 F1200
G1 X1.1711 Y42.4839 Z11.4904 F1200
G1 X-1.0198 Y36.9956 Z6.0000 F1200
G1 X-2.8903 Y34.8805 Z-1.5000 F1200
G1 X-5.0834 Y36.6588 Z-9.0000 F1200
G1 X-8.1477 Y41.7117 Z-14.4904 F1200
G1 X-12.2743 Y48.4700 Z-16.5000 F1200
G1 X-17.1646 Y54.8783 Z-14.4904 F1200
G1 X-22.0868 Y58.9912 Z-9.0000 F1200
G1 X-26.1102 Y59.5253 Z-1.5000 F1200
G1 X-28.4423 Y56.2034 Z6.0000 F1200

; Crossing External Hypercube Boundary Face Gate (Node 38)
G2 X-28.7500 Y49.7965 Z11.4904 R15.0000 F1200
G1 X-27.3474 Y41.8583 Z13.5000 F1200
G1 X-25.1700 Y34.2450 Z11.4904 F1200
G1 X-23.5279 Y28.5683 Z6.0000 F1200
G1 X-23.7049 Y25.7503 Z-1.5000 F1200
G1 X-26.5278 Y25.8067 Z-9.0000 F1200
G1 X-32.0495 Y27.9120 Z-14.4904 F1200
G1 X-39.4570 Y30.7106 Z-16.5000 F1200
G1 X-47.2522 Y32.7640 Z-14.4904 F1200
G1 X-53.6627 Y32.9864 Z-9.0000 F1200
G1 X-57.1658 Y30.9366 Z-1.5000 F1200
G1 X-56.9658 Y26.8828 Z6.0000 F1200
G1 X-53.2734 Y21.6378 Z11.4904 F1200
G1 X-47.2909 Y16.2350 Z13.5000 F1200
G1 X-40.8964 Y11.5644 Z11.4904 F1200
G1 X-36.1139 Y8.0933 Z6.0000 F1200
G1 X-34.5226 Y5.7608 Z-1.5000 F1200
G1 X-36.7850 Y4.0714 Z-9.0000 F1200
G1 X-42.4355 Y2.3412 Z-14.4904 F1200

; Crossing External Hypercube Boundary Face Gate (Node 57)
G2 X-50.0000 Y0.0000 Z-16.5000 R15.0000 F1200
G1 X-57.4127 Y-3.1675 Z-14.4904 F1200
G1 X-62.6081 Y-6.9295 Z-9.0000 F1200
G1 X-64.1135 Y-10.6986 Z-1.5000 F1200
G1 X-61.4658 Y-13.7748 Z6.0000 F1200
G1 X-55.3304 Y-15.6459 Z11.4904 F1200
G1 X-47.2909 Y-16.2350 Z13.5000 F1200
G1 X-39.3760 Y-15.9931 Z11.4904 F1200
G1 X-33.4699 Y-15.7948 Z6.0000 F1200
G1 X-30.7816 Y-16.6582 Z-1.5000 F1200
G1 X-31.5292 Y-19.3809 Z-9.0000 F1200
G1 X-34.9256 Y-24.2168 Z-14.4904 F1200
G1 X-39.4570 Y-30.7106 Z-16.5000 F1200
G1 X-43.3611 Y-37.7632 Z-14.4904 F1200
G1 X-45.1504 Y-43.9230 Z-9.0000 F1200
G1 X-44.0233 Y-47.8221 Z-1.5000 F1200
G1 X-40.0445 Y-48.6233 Z6.0000 F1200
G1 X-34.0535 Y-46.3315 Z11.4904 F1200
G1 X-27.3474 Y-41.8583 Z13.5000 F1200

; Crossing External Hypercube Boundary Face Gate (Node 76)
G2 X-21.2500 Y-36.8061 Z11.4904 R15.0000 F1200
G1 X-16.7111 Y-33.0220 Z6.0000 F1200
G1 X-14.0593 Y-32.0521 Z-1.5000 F1200
G1 X-12.9770 Y-34.6599 Z-9.0000 F1200
G1 X-12.6869 Y-40.5622 Z-14.4904 F1200
G1 X-12.2743 Y-48.4700 Z-16.5000 F1200
G1 X-11.0234 Y-56.4335 Z-14.4904 F1200
G1 X-8.6520 Y-62.3934 Z-9.0000 F1200
G1 X-5.3677 Y-64.7780 Z-1.5000 F1200
G1 X-1.7357 Y-62.9665 Z6.0000 F1200
G1 X1.5844 Y-57.4782 Z11.4904 F1200
G1 X4.1290 Y-49.8292 Z13.5000 F1200
G1 X5.8375 Y-42.0972 Z11.4904 F1200
G1 X7.0951 Y-36.3231 Z6.0000 F1200
G1 X8.5920 Y-33.9290 Z-1.5000 F1200
G1 X11.0479 Y-35.3222 Z-9.0000 F1200
G1 X14.9021 Y-39.8017 Z-14.4904 F1200
G1 X20.0848 Y-45.7887 Z-16.5000 F1200
G1 X25.9632 Y-51.3046 Z-14.4904 F1200

; Crossing External Hypercube Boundary Face Gate (Node 95)
G2 X31.4952 Y-54.5513 Z-9.0000 R15.0000 F1200
G1 X35.5516 Y-54.4158 Z-1.5000 F1200
G1 X37.3051 Y-50.7555 Z6.0000 F1200
G1 X36.5541 Y-44.3852 Z11.4904 F1200
G1 X33.8641 Y-36.7862 Z13.5000 F1200
G1 X30.4633 Y-29.6351 Z11.4904 F1200
G1 X27.9092 Y-24.3061 Z6.0000 F1200
G1 X27.6199 Y-21.4974 Z-1.5000 F1200
G1 X30.4137 Y-21.0884 Z-9.0000 F1200
G1 X36.2066 Y-22.2561 Z-14.4904 F1200
G1 X43.9737 Y-23.7974 Z-16.5000 F1200
G1 X52.0005 Y-24.5396 Z-14.4904 F1200
G1 X58.3602 Y-23.7039 Z-9.0000 F1200
G1 X61.4781 Y-21.1055 Z-1.5000 F1200
G1 X60.6136 Y-17.1399 Z6.0000 F1200
G1 X56.1083 Y-12.5742 Z11.4904 F1200
G1 X49.3181 Y-8.2297 Z13.5000 F1200
G1 X42.2421 Y-4.6753 Z11.4904 F1200
G1 X36.9534 Y-2.0388 Z6.0000 F1200

; Complete absolute vector loop circuit link back to origin
G1 X65.0000 Y0.0000 Z-1.5000 F1200

; Hardware Safe Termination Sequence
G0 Z5.0000 ; Safely extract tool head out of processing volume
M05             ; Power off spindle motor assembly
M30             ; End of program loop sequence execution
; ========================================================